STARLINK-1341           
1 45534U 20025D   23208.05627924  .00011408  00000+0  78316-3 0  9991
2 45534  53.0538  81.1119 0001447  98.9300 261.1853 15.06417848180316
STARLINK-1350           
1 45535U 20025E   23207.87566847  .00025933  00000+0  17514-2 0  9997
2 45535  53.0546  81.9220 0001530  92.0044 268.1120 15.06444364180889
STARLINK-1352           
1 45536U 20025F   23208.07838423  .00022333  00000+0  15115-2 0  9999
2 45536  53.0547  81.0125 0001313  92.1448 267.9691 15.06447684180321
STARLINK-1362           
1 45538U 20025H   23208.03782113 -.00009647  00000+0 -62900-3 0  9991
2 45538  53.0543  81.1936 0000640 139.3309 220.7728 15.06437648180318
STARLINK-1368           
1 45540U 20025K   23208.01572612  .00020819  00000+0  14111-2 0  9995
2 45540  53.0539  81.2942 0001146 100.1894 259.9224 15.06435679180318
STARLINK-1369           
1 45541U 20025L   23208.01940530  .00023041  00000+0  15587-2 0  9992
2 45541  53.0539  81.2786 0001093 100.5423 259.5689 15.06447240180316
STARLINK-1371           
1 45542U 20025M   23208.05258135  .00020435  00000+0  13851-2 0  9996
2 45542  53.0539  81.1241 0001116  97.8221 262.2895 15.06445274180317
STARLINK-1372           
1 45543U 20025N   23208.02309351  .00023611  00000+0  15967-2 0  9990
2 45543  53.0550  81.2650 0001103 111.3109 248.7998 15.06446297180318
STARLINK-1373           
1 45544U 20025P   23207.90883427  .00021932  00000+0  14852-2 0  9994
2 45544  53.0529  81.7696 0001107 111.1308 248.9799 15.06436612180280
STARLINK-1374           
1 45545U 20025Q   23208.05996231  .00008972  00000+0  62017-3 0  9996
2 45545  53.0545  81.0956 0001106  93.5466 266.5649 15.06414875180320
STARLINK-1375           
1 45546U 20025R   23208.07101022  .00017830  00000+0  12116-2 0  9992
2 45546  53.0545  81.0465 0001058  86.4744 273.6366 15.06439440180322
STARLINK-1377           
1 45547U 20025S   23207.93463626  .00020373  00000+0  13811-2 0  9997
2 45547  53.0542  81.6555 0001346  84.0465 276.0678 15.06442143180305
STARLINK-1378           
1 45548U 20025T   23208.02678105  .00023490  00000+0  15887-2 0  9997
2 45548  53.0532  81.2448 0001182  95.9268 264.1856 15.06445057180316
STARLINK-1390           
1 45550U 20025V   23208.08477401  .00022771  00000+0  15406-2 0  9990
2 45550  53.0545  80.7217 0001017 111.4899 248.6199 15.06449052180318
STARLINK-1294           
1 45551U 20025W   23207.98070811  .00022398  00000+0  15161-2 0  9996
2 45551  53.0531  61.4505 0001225 109.6957 250.4164 15.06441222180566
STARLINK-1323           
1 45553U 20025Y   23207.99176666  .00019868  00000+0  13478-2 0  9991
2 45553  53.0540  61.4023 0000914  94.2583 265.8511 15.06431300180574
STARLINK-1325           
1 45554U 20025Z   23207.98344379  .00003707  00000+0  26759-3 0  9991
2 45554  53.0569  61.4295 0001510  87.6454 272.4708 15.06409605180567
STARLINK-1327           
1 45555U 20025AA  23208.01388122  .00020783  00000+0  14082-2 0  9999
2 45555  53.0547  61.3039 0001307  90.9179 269.1960 15.06447453180571
STARLINK-1334           
1 45556U 20025AB  23207.85539007  .00019414  00000+0  13175-2 0  9992
2 45556  53.0525  62.0126 0001278 110.0628 250.0499 15.06431563180552
STARLINK-1336           
1 45557U 20025AC  23207.86275991  .00020776  00000+0  14083-2 0  9995
2 45557  53.0536  61.9819 0000353  62.1697 297.9328 15.06432405181152
STARLINK-1342           
1 45558U 20025AD  23208.02862320  .00021736  00000+0  14719-2 0  9996
2 45558  53.0549  61.2384 0001004 101.4907 258.6195 15.06442698180578
STARLINK-1344           
1 45559U 20025AE  23207.86181124  .00021289  00000+0  14425-2 0  9991
2 45559  53.0537  61.9389 0001026  90.8261 269.2846 15.06433959181152
STARLINK-1346           
1 45560U 20025AF  23208.05071754  .00022722  00000+0  15377-2 0  9992
2 45560  53.0545  51.1245 0000826  63.2987 296.8086 15.06441642180723
STARLINK-1354           
1 45562U 20025AH  23207.87382253  .00020045  00000+0  13590-2 0  9993
2 45562  53.0537  61.9320 0001384  90.5199 269.5949 15.06447622181154
STARLINK-1355           
1 45563U 20025AJ  23208.02125409  .00016891  00000+0  11489-2 0  9999
2 45563  53.0547  61.2711 0001326  84.4568 275.6572 15.06439831180579
STARLINK-1356           
1 45564U 20025AK  23207.88487637  .00018535  00000+0  12586-2 0  9993
2 45564  53.0548  61.8818 0001293  84.1327 275.9809 15.06439024181153
STARLINK-1357           
1 45565U 20025AL  23208.01019335  .00022007  00000+0  14900-2 0  9997
2 45565  53.0544  61.3169 0001044  81.1546 278.9561 15.06441813180581
STARLINK-1358           
1 45566U 20025AM  23208.02494069  .00005566  00000+0  39213-3 0  9996
2 45566  53.0546  61.2536 0001574  94.7700 265.3469 15.06411582180577
STARLINK-1361           
1 45567U 20025AN  23208.03599298  .00020811  00000+0  14103-2 0  9998
2 45567  53.0537  61.2028 0000522  94.1657 265.9391 15.06440893180578
STARLINK-1363           
1 45568U 20025AP  23207.98442506  .00020086  00000+0  13622-2 0  9990
2 45568  53.0533  61.6758 0001281 101.2268 258.8865 15.06436149180565
STARLINK-1366           
1 45569U 20025AQ  23207.97333702  .00022160  00000+0  15002-2 0  9996
2 45569  53.0537  61.4844 0001015  93.0745 267.0360 15.06441975180562
STARLINK-1376           
1 45570U 20025AR  23208.03230720  .00021874  00000+0  14810-2 0  9999
2 45570  53.0545  61.2195 0001168  99.3847 260.7274 15.06445349180586
STARLINK-1261           
1 45571U 20025AS  23208.04797949  .00023077  00000+0  15610-2 0  9998
2 45571  53.0538  51.1493 0001495  85.5148 274.6012 15.06448830180720
STARLINK-1320           
1 45572U 20025AT  23208.01130186  .00028837  00000+0  17254-2 0  9995
2 45572  53.0539  49.6194 0003360  97.5416 262.5956 15.10833411180738
STARLINK-1321           
1 45573U 20025AU  23207.95214820  .00021008  00000+0  14237-2 0  9997
2 45573  53.0539  51.5812 0001054  91.9189 268.1921 15.06435296180706
STARLINK-1324           
1 45574U 20025AV  23208.04428627  .00021861  00000+0  14801-2 0  9995
2 45574  53.0557  51.1677 0000637  95.0469 265.0592 15.06445825180725
STARLINK-1328           
1 45576U 20025AX  23207.87105061  .00016102  00000+0  10967-2 0  9992
2 45576  53.0548  51.9418 0001322 102.6668 257.4469 15.06424151181308
STARLINK-1331           
1 45578U 20025AZ  23207.86368301  .00019064  00000+0  12942-2 0  9996
2 45578  53.0542  51.9746 0001267  96.4028 263.7105 15.06430136181303
STARLINK-1332           
1 45579U 20025BA  23207.80472617  .00023075  00000+0  15614-2 0  9993
2 45579  53.0541  12.4034 0001055  93.0385 267.0725 15.06437117181254
STARLINK-1333           
1 45580U 20025BB  23207.87013950  .00021180  00000+0  14355-2 0  9999
2 45580  53.0539  61.9491 0000593  53.9341 306.1703 15.06425802181150
STARLINK-1335           
1 45581U 20025BC  23207.87473434  .00021034  00000+0  14253-2 0  9992
2 45581  53.0543  51.9260 0000882 113.3950 246.7132 15.06438104181296
STARLINK-1337           
1 45582U 20025BD  23207.83051237  .00018897  00000+0  12833-2 0  9997
2 45582  53.0547  52.1285 0001000 108.5195 251.5903 15.06423746181286
STARLINK-1340           
1 45583U 20025BE  23208.01115911  .00021828  00000+0  14794-2 0  9995
2 45583  53.0549  51.3136 0000972 124.9302 235.1778 15.06408417180717
STARLINK-1343           
1 45584U 20025BF  23207.52828674  .00003840  00000+0  27418-4 0  9991
2 45584  53.0484   6.1861 0000956 299.0574  61.0350 15.76753471181304
STARLINK-1347           
1 45586U 20025BH  23207.69044822  .00022140  00000+0  14993-2 0  9992
2 45586  53.0547  52.7583 0001033 100.7285 259.3821 15.06430876181251
STARLINK-1349           
1 45587U 20025BJ  23207.99268983  .00019200  00000+0  13031-2 0  9997
2 45587  53.0558  51.3995 0001128  76.3860 283.7255 15.06435457180710
STARLINK-1360           
1 45588U 20025BK  23207.83788273  .00020594  00000+0  13962-2 0  9991
2 45588  53.0543  52.0933 0001100  90.6187 269.4928 15.06432818181285
STARLINK-1364           
1 45589U 20025BL  23207.83419875  .00019954  00000+0  13536-2 0  9996
2 45589  53.0541  52.1105 0001053  98.6490 261.4618 15.06429211181289
STARLINK-1365           
1 45590U 20025BM  23208.04889912  .00016496  00000+0  11221-2 0  9992
2 45590  53.0512  81.1442 0000902 125.7203 234.3870 15.06454700180303
XINGYUN-2 01            
1 45602U 20028A   23208.05172737  .00002455  00000+0  18446-3 0  9997
2 45602  97.4480 215.2880 0010870 219.0303 141.0140 15.03437181175705
XINGYUN-2 02            
1 45603U 20028B   23208.04016973  .00002471  00000+0  18541-3 0  9990
2 45603  97.5281 222.0221 0011030 286.8695  73.1321 15.03506861175704
ULTP                    
1 45605U 20011D   23207.78348666  .00035125  00000+0  63666-3 0  9991
2 45605  51.6397 276.8724 0002693 232.3890 127.6855 15.49275939179337
COSMOS 2546             
1 45608U 20031A   23207.26235981 -.00000147  00000+0  00000+0 0  9990
2 45608  63.1547 182.1446 6610270 266.0971  21.9633  2.00642008 23269
XJS G                   
1 45611U 20032A   23207.86799537  .00024163  00000+0  57257-3 0  9996
2 45611  35.0301 353.1889 0000254 313.3119  46.7581 15.40808133177177
XJS H                   
1 45612U 20032B   23208.02318646  .00067256  00000+0  96150-3 0  9999
2 45612  35.0326 332.9510 0007343  25.7872 334.3219 15.55028687177399
HEAD-4                  
1 45624U 20034A   23208.05108546  .00040574  00000+0  78522-3 0  9990
2 45624  97.4274 357.7671 0009036 148.4644 211.7149 15.47588615176022
GAOFEN 9-02             
1 45625U 20034B   23208.06346035  .00009917  00000+0  41870-3 0  9991
2 45625  97.4429 348.3451 0012153 176.7207 183.4112 15.23404110175340
STARLINK-1441           
1 45658U 20035B   23207.82406361  .00021749  00000+0  14732-2 0  9993
2 45658  53.0552  42.1521 0001460  73.9574 286.1576 15.06432362174516
STARLINK-1442           
1 45659U 20035C   23207.89318420  .00027662  00000+0  18651-2 0  9993
2 45659  53.0551  41.8461 0001439  85.2377 274.8776 15.06470836174512
